[{"OBJECT_NAME":"AURA","OBJECT_ID":"2004-026A","EPOCH":"2026-03-09T21:39:31.960800","MEAN_MOTION":14.61149986,"ECCENTRICITY":0.0001042,"INCLINATION":98.3311,"RA_OF_ASC_NODE":24.6066,"ARG_OF_PERICENTER":85.0806,"MEAN_ANOMALY":275.0513,"EPHEMERIS_TYPE":0,"CLASSIFICATION_TYPE":"U","NORAD_CAT_ID":28376,"ELEMENT_SET_NO":999,"REV_AT_EPOCH":15171,"BSTAR":0.00028939986,"MEAN_MOTION_DOT":1.376e-5,"MEAN_MOTION_DDOT":0},{"OBJECT_NAME":"CZ-6A DEB","OBJECT_ID":"2024-140MT","EPOCH":"2026-03-09T22:51:04.514112","MEAN_MOTION":14.50107233,"ECCENTRICITY":0.00732383,"INCLINATION":88.5891,"RA_OF_ASC_NODE":254.0479,"ARG_OF_PERICENTER":220.671,"MEAN_ANOMALY":138.9015,"EPHEMERIS_TYPE":0,"CLASSIFICATION_TYPE":"U","NORAD_CAT_ID":61077,"ELEMENT_SET_NO":999,"REV_AT_EPOCH":8110,"BSTAR":0.0010667643,"MEAN_MOTION_DOT":4.301e-5,"MEAN_MOTION_DDOT":0}]
